{
  "type": "FeatureCollection",
  "features": [
    {
      "type": "Feature",
      "properties": {
        "norad_id": 46734,
        "name": "IRIDIUM 33 DEB",
        "group": "iridium-33-debris",
        "lat": 54.196080679038964,
        "lon": 4.058064382652689,
        "alt_km": 755.8708304636266,
        "timestamp": "2025-12-21T20:41:08.341892+00:00",
        "meta_object_name": "IRIDIUM 33 DEB",
        "meta_object_id": "1997-051ABR",
        "meta_epoch": "2025-12-16T07:16:35.707584",
        "meta_mean_motion": 14.41911222,
        "meta_eccentricity": 0.00381217,
        "meta_inclination": 86.2633,
        "meta_ra_of_asc_node": 1.2995,
        "meta_arg_of_pericenter": 323.6514,
        "meta_mean_anomaly": 53.8246,
        "meta_ephemeris_type": 0,
        "meta_classification_type": "U",
        "meta_norad_cat_id": 46734,
        "meta_element_set_no": 999,
        "meta_rev_at_epoch": 63062,
        "meta_bstar": 0.00075238,
        "meta_mean_motion_dot": 2.503e-05,
        "meta_mean_motion_ddot": 0,
        "tle_line1": "1 46734U 97051ABR 25350.30319106  .00002503  00000+0  75238-3 0  9991",
        "tle_line2": "2 46734  86.2633   1.2995 0038121 323.6514  53.8246 14.41911222630621"
      },
      "geometry": {
        "type": "Point",
        "coordinates": [
          4.058064382652689,
          54.196080679038964
        ]
      }
    },
    {
      "type": "Feature",
      "properties": {
        "norad_id": 46965,
        "name": "IRIDIUM 33 DEB",
        "group": "iridium-33-debris",
        "lat": 74.91467453301631,
        "lon": -9.592985053978255,
        "alt_km": 693.5790266400682,
        "timestamp": "2025-12-21T20:41:08.341902+00:00",
        "meta_object_name": "IRIDIUM 33 DEB",
        "meta_object_id": "1997-051ABX",
        "meta_epoch": "2025-12-19T17:55:53.080032",
        "meta_mean_motion": 14.60345703,
        "meta_eccentricity": 0.00174181,
        "meta_inclination": 86.3352,
        "meta_ra_of_asc_node": 337.5891,
        "meta_arg_of_pericenter": 308.2563,
        "meta_mean_anomaly": 176.3238,
        "meta_ephemeris_type": 0,
        "meta_classification_type": "U",
        "meta_norad_cat_id": 46965,
        "meta_element_set_no": 999,
        "meta_rev_at_epoch": 62370,
        "meta_bstar": 0.00056519874,
        "meta_mean_motion_dot": 2.758e-05,
        "meta_mean_motion_ddot": 0,
        "tle_line1": "1 46965U 97051ABX 25353.74714213  .00002758  00000+0  56520-3 0  9991",
        "tle_line2": "2 46965  86.3352 337.5891 0017418 308.2563 176.3238 14.60345703623704"
      },
      "geometry": {
        "type": "Point",
        "coordinates": [
          -9.592985053978255,
          74.91467453301631
        ]
      }
    },
    {
      "type": "Feature",
      "properties": {
        "norad_id": 46971,
        "name": "IRIDIUM 33 DEB",
        "group": "iridium-33-debris",
        "lat": -39.79798024869538,
        "lon": -34.23306324701357,
        "alt_km": 576.8806363684025,
        "timestamp": "2025-12-21T20:41:08.341911+00:00",
        "meta_object_name": "IRIDIUM 33 DEB",
        "meta_object_id": "1997-051ACD",
        "meta_epoch": "2025-12-18T04:46:20.926848",
        "meta_mean_motion": 14.98336604,
        "meta_eccentricity": 0.00026432,
        "meta_inclination": 86.3383,
        "meta_ra_of_asc_node": 330.5483,
        "meta_arg_of_pericenter": 282.6501,
        "meta_mean_anomaly": 90.914,
        "meta_ephemeris_type": 0,
        "meta_classification_type": "U",
        "meta_norad_cat_id": 46971,
        "meta_element_set_no": 999,
        "meta_rev_at_epoch": 64312,
        "meta_bstar": 0.0022892837,
        "meta_mean_motion_dot": 0.00027356,
        "meta_mean_motion_ddot": 0,
        "tle_line1": "1 46971U 97051ACD 25352.19885332  .00027356  00000+0  22893-2 0  9993",
        "tle_line2": "2 46971  86.3383 330.5483 0002643 282.6501  90.9140 14.98336604643128"
      },
      "geometry": {
        "type": "Point",
        "coordinates": [
          -34.23306324701357,
          -39.79798024869538
        ]
      }
    },
    {
      "type": "Feature",
      "properties": {
        "norad_id": 46972,
        "name": "IRIDIUM 33 DEB",
        "group": "iridium-33-debris",
        "lat": -2.9047990531029164,
        "lon": 35.292711139699335,
        "alt_km": 725.9198459312083,
        "timestamp": "2025-12-21T20:41:08.341920+00:00",
        "meta_object_name": "IRIDIUM 33 DEB",
        "meta_object_id": "1997-051ACE",
        "meta_epoch": "2025-12-21T09:11:05.305920",
        "meta_mean_motion": 14.50711481,
        "meta_eccentricity": 0.00115864,
        "meta_inclination": 86.3857,
        "meta_ra_of_asc_node": 35.6828,
        "meta_arg_of_pericenter": 82.9769,
        "meta_mean_anomaly": 293.3093,
        "meta_ephemeris_type": 0,
        "meta_classification_type": "U",
        "meta_norad_cat_id": 46972,
        "meta_element_set_no": 999,
        "meta_rev_at_epoch": 61698,
        "meta_bstar": 0.00037661029,
        "meta_mean_motion_dot": 1.501e-05,
        "meta_mean_motion_ddot": 0,
        "tle_line1": "1 46972U 97051ACE 25355.38270030  .00001501  00000+0  37661-3 0  9995",
        "tle_line2": "2 46972  86.3857  35.6828 0011586  82.9769 293.3093 14.50711481616982"
      },
      "geometry": {
        "type": "Point",
        "coordinates": [
          35.292711139699335,
          -2.9047990531029164
        ]
      }
    },
    {
      "type": "Feature",
      "properties": {
        "norad_id": 46974,
        "name": "IRIDIUM 33 DEB",
        "group": "iridium-33-debris",
        "lat": -8.523256308729227,
        "lon": 100.73615401726691,
        "alt_km": 813.1644540278276,
        "timestamp": "2025-12-21T20:41:08.341929+00:00",
        "meta_object_name": "IRIDIUM 33 DEB",
        "meta_object_id": "1997-051ACG",
        "meta_epoch": "2025-12-14T14:09:41.074272",
        "meta_mean_motion": 14.44439168,
        "meta_eccentricity": 0.00956816,
        "meta_inclination": 86.2983,
        "meta_ra_of_asc_node": 104.4675,
        "meta_arg_of_pericenter": 181.0289,
        "meta_mean_anomaly": 179.0732,
        "meta_ephemeris_type": 0,
        "meta_classification_type": "U",
        "meta_norad_cat_id": 46974,
        "meta_element_set_no": 999,
        "meta_rev_at_epoch": 57535,
        "meta_bstar": 0.0034715296,
        "meta_mean_motion_dot": 0.00012692,
        "meta_mean_motion_ddot": 0,
        "tle_line1": "1 46974U 97051ACG 25348.59005873  .00012692  00000+0  34715-2 0  9992",
        "tle_line2": "2 46974  86.2983 104.4675 0095681 181.0289 179.0732 14.44439168575351"
      },
      "geometry": {
        "type": "Point",
        "coordinates": [
          100.73615401726691,
          -8.523256308729227
        ]
      }
    },
    {
      "type": "Feature",
      "properties": {
        "norad_id": 46979,
        "name": "IRIDIUM 33 DEB",
        "group": "iridium-33-debris",
        "lat": 47.05110284212145,
        "lon": 48.26222246278153,
        "alt_km": 609.0877428762296,
        "timestamp": "2025-12-21T20:41:08.341939+00:00",
        "meta_object_name": "IRIDIUM 33 DEB",
        "meta_object_id": "1997-051ACM",
        "meta_epoch": "2025-12-17T21:22:35.876928",
        "meta_mean_motion": 14.8988445,
        "meta_eccentricity": 0.00279352,
        "meta_inclination": 86.3335,
        "meta_ra_of_asc_node": 46.1582,
        "meta_arg_of_pericenter": 204.5568,
        "meta_mean_anomaly": 155.433,
        "meta_ephemeris_type": 0,
        "meta_classification_type": "U",
        "meta_norad_cat_id": 46979,
        "meta_element_set_no": 999,
        "meta_rev_at_epoch": 35505,
        "meta_bstar": 0.0030814972,
        "meta_mean_motion_dot": 0.00029954,
        "meta_mean_motion_ddot": 0,
        "tle_line1": "1 46979U 97051ACM 25351.89069302  .00029954  00000+0  30815-2 0  9997",
        "tle_line2": "2 46979  86.3335  46.1582 0027935 204.5568 155.4330 14.89884450355057"
      },
      "geometry": {
        "type": "Point",
        "coordinates": [
          48.26222246278153,
          47.05110284212145
        ]
      }
    }
  ]
}